{"type": "FeatureCollection", "features": [ {"type": "Feature", "properties": {"norad_id": 37834, "name": "INTELSAT 18 (IS-18)", "group": "intelsat", "lat": 0.0013256881674557886, "lon": -27.53638139633343, "alt_km": 35780.16415468673, "timestamp": "2025-12-26T03:50:11.755520+00:00", "meta": {"OBJECT_NAME": "INTELSAT 18 (IS-18)", "OBJECT_ID": "2011-056A", "EPOCH": "2025-12-25T13:55:22.248768", "MEAN_MOTION": 1.00271778, "ECCENTRICITY": 0.0001891, "INCLINATION": 0.0194, "RA_OF_ASC_NODE": 293.2532, "ARG_OF_PERICENTER": 356.5598, "MEAN_ANOMALY": 193.3649, "EPHEMERIS_TYPE": 0, "CLASSIFICATION_TYPE": "U", "NORAD_CAT_ID": 37834, "ELEMENT_SET_NO": 999, "REV_AT_EPOCH": 5207, "BSTAR": 0, "MEAN_MOTION_DOT": 7.4e-07, "MEAN_MOTION_DDOT": 0}, "tle": {"line1": "1 37834U 11056A   25359.58011862  .00000074  00000+0  00000+0 0  9992", "line2": "2 37834   0.0194 293.2532 0001891 356.5598 193.3649  1.00271778 52079"}}, "geometry": {"type": "Point", "coordinates": [-27.53638139633343, 0.0013256881674557886]}}, {"type": "Feature", "properties": {"norad_id": 38098, "name": "INTELSAT 22 (IS-22)", "group": "intelsat", "lat": -0.004580434702206412, "lon": -135.48599510655316, "alt_km": 35784.165709657624, "timestamp": "2025-12-26T03:50:11.755532+00:00", "meta": {"OBJECT_NAME": "INTELSAT 22 (IS-22)", "OBJECT_ID": "2012-011A", "EPOCH": "2025-12-25T19:18:47.428704", "MEAN_MOTION": 1.00270575, "ECCENTRICITY": 0.000195, "INCLINATION": 0.0309, "RA_OF_ASC_NODE": 50.2423, "ARG_OF_PERICENTER": 248.5846, "MEAN_ANOMALY": 157.5157, "EPHEMERIS_TYPE": 0, "CLASSIFICATION_TYPE": "U", "NORAD_CAT_ID": 38098, "ELEMENT_SET_NO": 999, "REV_AT_EPOCH": 545, "BSTAR": 0, "MEAN_MOTION_DOT": 0, "MEAN_MOTION_DDOT": 0}, "tle": {"line1": "1 38098U 12011A   25359.80471561  .00000000  00000+0  00000+0 0  9997", "line2": "2 38098   0.0309  50.2423 0001950 248.5846 157.5157  1.00270575  5452"}}, "geometry": {"type": "Point", "coordinates": [-135.48599510655316, -0.004580434702206412]}}, {"type": "Feature", "properties": {"norad_id": 38356, "name": "INTELSAT 19 (IS-19)", "group": "intelsat", "lat": -0.01269304521616694, "lon": -41.51522009098591, "alt_km": 35777.479227578064, "timestamp": "2025-12-26T03:50:11.755544+00:00", "meta": {"OBJECT_NAME": "INTELSAT 19 (IS-19)", "OBJECT_ID": "2012-030A", "EPOCH": "2025-12-25T13:02:38.686848", "MEAN_MOTION": 1.00272036, "ECCENTRICITY": 0.0002961, "INCLINATION": 0.0106, "RA_OF_ASC_NODE": 331.8116, "ARG_OF_PERICENTER": 299.4654, "MEAN_ANOMALY": 184.6938, "EPHEMERIS_TYPE": 0, "CLASSIFICATION_TYPE": "U", "NORAD_CAT_ID": 38356, "ELEMENT_SET_NO": 999, "REV_AT_EPOCH": 4871, "BSTAR": 0, "MEAN_MOTION_DOT": -3.5e-07, "MEAN_MOTION_DDOT": 0}, "tle": {"line1": "1 38356U 12030A   25359.54350332 -.00000035  00000+0  00000+0 0  9997", "line2": "2 38356   0.0106 331.8116 0002961 299.4654 184.6938  1.00272036 48714"}}, "geometry": {"type": "Point", "coordinates": [-41.51522009098591, -0.01269304521616694]}}, {"type": "Feature", "properties": {"norad_id": 38740, "name": "INTELSAT 20 (IS-20)", "group": "intelsat", "lat": -0.0009690387676397939, "lon": -139.02223759614222, "alt_km": 35776.87414470471, "timestamp": "2025-12-26T03:50:11.755556+00:00", "meta": {"OBJECT_NAME": "INTELSAT 20 (IS-20)", "OBJECT_ID": "2012-043A", "EPOCH": "2025-12-24T23:41:40.191072", "MEAN_MOTION": 1.00274574, "ECCENTRICITY": 0.00024069, "INCLINATION": 0.0114, "RA_OF_ASC_NODE": 58.8187, "ARG_OF_PERICENTER": 128.2176, "MEAN_ANOMALY": 330.6334, "EPHEMERIS_TYPE": 0, "CLASSIFICATION_TYPE": "U", "NORAD_CAT_ID": 38740, "ELEMENT_SET_NO": 999, "REV_AT_EPOCH": 4900, "BSTAR": 0, "MEAN_MOTION_DOT": -4e-08, "MEAN_MOTION_DDOT": 0}, "tle": {"line1": "1 38740U 12043A   25358.98727073 -.00000004  00000+0  00000+0 0  9991", "line2": "2 38740   0.0114  58.8187 0002406 128.2176 330.6334  1.00274574 49001"}}, "geometry": {"type": "Point", "coordinates": [-139.02223759614222, -0.0009690387676397939]}}, {"type": "Feature", "properties": {"norad_id": 38749, "name": "INTELSAT 21 (IS-21)", "group": "intelsat", "lat": 0.025460362431136144, "lon": 94.46387843470232, "alt_km": 35793.17909731021, "timestamp": "2025-12-26T03:50:11.755568+00:00", "meta": {"OBJECT_NAME": "INTELSAT 21 (IS-21)", "OBJECT_ID": "2012-045A", "EPOCH": "2025-12-25T09:21:59.613120", "MEAN_MOTION": 1.00272381, "ECCENTRICITY": 0.0001717, "INCLINATION": 0.0147, "RA_OF_ASC_NODE": 324.6716, "ARG_OF_PERICENTER": 300.7853, "MEAN_ANOMALY": 271.2065, "EPHEMERIS_TYPE": 0, "CLASSIFICATION_TYPE": "U", "NORAD_CAT_ID": 38749, "ELEMENT_SET_NO": 999, "REV_AT_EPOCH": 4878, "BSTAR": 0, "MEAN_MOTION_DOT": -2.63e-06, "MEAN_MOTION_DDOT": 0}, "tle": {"line1": "1 38749U 12045A   25359.39027330 -.00000263  00000+0  00000+0 0  9994", "line2": "2 38749   0.0147 324.6716 0001717 300.7853 271.2065  1.00272381 48780"}}, "geometry": {"type": "Point", "coordinates": [94.46387843470232, 0.025460362431136144]}}, {"type": "Feature", "properties": {"norad_id": 38867, "name": "INTELSAT 23 (IS-23)", "group": "intelsat", "lat": 0.020973313815468693, "lon": 99.46357239530562, "alt_km": 35787.59715352464, "timestamp": "2025-12-26T03:50:11.755580+00:00", "meta": {"OBJECT_NAME": "INTELSAT 23 (IS-23)", "OBJECT_ID": "2012-057A", "EPOCH": "2025-12-25T04:25:47.526240", "MEAN_MOTION": 1.00274029, "ECCENTRICITY": 5.237e-05, "INCLINATION": 0.0134, "RA_OF_ASC_NODE": 70.2161, "ARG_OF_PERICENTER": 232.2564, "MEAN_ANOMALY": 164.926, "EPHEMERIS_TYPE": 0, "CLASSIFICATION_TYPE": "U", "NORAD_CAT_ID": 38867, "ELEMENT_SET_NO": 999, "REV_AT_EPOCH": 4821, "BSTAR": 0, "MEAN_MOTION_DOT": -2.63e-06, "MEAN_MOTION_DDOT": 0}, "tle": {"line1": "1 38867U 12057A   25359.18457785 -.00000263  00000+0  00000+0 0  9996", "line2": "2 38867   0.0134  70.2161 0000523 232.2564 164.9260  1.00274029 48211"}}, "geometry": {"type": "Point", "coordinates": [99.46357239530562, 0.020973313815468693]}}, {"type": "Feature", "properties": {"norad_id": 39360, "name": "FM-6", "group": "intelsat", "lat": -0.007266220377484452, "lon": 36.25962687728603, "alt_km": 35794.86619761574, "timestamp": "2025-12-26T03:50:11.755592+00:00", "meta": {"OBJECT_NAME": "FM-6", "OBJECT_ID": "2013-058A", "EPOCH": "2025-12-25T07:36:38.659104", "MEAN_MOTION": 1.00272197, "ECCENTRICITY": 0.0002612, "INCLINATION": 0.0189, "RA_OF_ASC_NODE": 76.11, "ARG_OF_PERICENTER": 104.6769, "MEAN_ANOMALY": 271.2768, "EPHEMERIS_TYPE": 0, "CLASSIFICATION_TYPE": "U", "NORAD_CAT_ID": 39360, "ELEMENT_SET_NO": 999, "REV_AT_EPOCH": 4433, "BSTAR": 0, "MEAN_MOTION_DOT": 4e-08, "MEAN_MOTION_DDOT": 0}, "tle": {"line1": "1 39360U 13058A   25359.31711411  .00000004  00000+0  00000+0 0  9993", "line2": "2 39360   0.0189  76.1100 0002612 104.6769 271.2768  1.00272197 44336"}}, "geometry": {"type": "Point", "coordinates": [36.25962687728603, -0.007266220377484452]}}, {"type": "Feature", "properties": {"norad_id": 40271, "name": "INTELSAT 30 (IS-30)", "group": "intelsat", "lat": 0.01884044024272804, "lon": 57.372556523739824, "alt_km": 35781.350716565576, "timestamp": "2025-12-26T03:50:11.755603+00:00", "meta": {"OBJECT_NAME": "INTELSAT 30 (IS-30)", "OBJECT_ID": "2014-062A", "EPOCH": "2025-12-24T22:55:07.150368", "MEAN_MOTION": 1.00269678, "ECCENTRICITY": 0.00015108, "INCLINATION": 0.0145, "RA_OF_ASC_NODE": 31.8875, "ARG_OF_PERICENTER": 58.3804, "MEAN_ANOMALY": 252.1734, "EPHEMERIS_TYPE": 0, "CLASSIFICATION_TYPE": "U", "NORAD_CAT_ID": 40271, "ELEMENT_SET_NO": 999, "REV_AT_EPOCH": 504, "BSTAR": 0, "MEAN_MOTION_DOT": -1.29e-06, "MEAN_MOTION_DDOT": 0}, "tle": {"line1": "1 40271U 14062A   25358.95494387 -.00000129  00000+0  00000+0 0  9990", "line2": "2 40271   0.0145  31.8875 0001510  58.3804 252.1734  1.00269678  5045"}}, "geometry": {"type": "Point", "coordinates": [57.372556523739824, 0.01884044024272804]}}, {"type": "Feature", "properties": {"norad_id": 40333, "name": "DIRECTV 14", "group": "intelsat", "lat": 0.03004772779876128, "lon": 53.28829542452485, "alt_km": 35785.49532594985, "timestamp": "2025-12-26T03:50:11.755615+00:00", "meta": {"OBJECT_NAME": "DIRECTV 14", "OBJECT_ID": "2014-078B", "EPOCH": "2025-12-24T12:37:43.773312", "MEAN_MOTION": 1.00279829, "ECCENTRICITY": 3.885e-05, "INCLINATION": 0.0184, "RA_OF_ASC_NODE": 340.4706, "ARG_OF_PERICENTER": 254.7884, "MEAN_ANOMALY": 308.2619, "EPHEMERIS_TYPE": 0, "CLASSIFICATION_TYPE": "U", "NORAD_CAT_ID": 40333, "ELEMENT_SET_NO": 999, "REV_AT_EPOCH": 4029, "BSTAR": 0, "MEAN_MOTION_DOT": -1.06e-06, "MEAN_MOTION_DDOT": 0}, "tle": {"line1": "1 40333U 14078B   25358.52620108 -.00000106  00000+0  00000+0 0  9996", "line2": "2 40333   0.0184 340.4706 0000388 254.7884 308.2619  1.00279829 40291"}}, "geometry": {"type": "Point", "coordinates": [53.28829542452485, 0.03004772779876128]}}, {"type": "Feature", "properties": {"norad_id": 40663, "name": "DIRECTV 15", "group": "intelsat", "lat": 0.017958267681447166, "lon": 49.54362920636504, "alt_km": 35787.970167664476, "timestamp": "2025-12-26T03:50:11.755627+00:00", "meta": {"OBJECT_NAME": "DIRECTV 15", "OBJECT_ID": "2015-026A", "EPOCH": "2025-12-25T16:00:02.810880", "MEAN_MOTION": 1.00267803, "ECCENTRICITY": 3.37e-05, "INCLINATION": 0.018, "RA_OF_ASC_NODE": 26.1792, "ARG_OF_PERICENTER": 146.2748, "MEAN_ANOMALY": 59.0835, "EPHEMERIS_TYPE": 0, "CLASSIFICATION_TYPE": "U", "NORAD_CAT_ID": 40663, "ELEMENT_SET_NO": 999, "REV_AT_EPOCH": 3872, "BSTAR": 0, "MEAN_MOTION_DOT": -8e-07, "MEAN_MOTION_DDOT": 0}, "tle": {"line1": "1 40663U 15026A   25359.66669920 -.00000080  00000+0  00000+0 0  9998", "line2": "2 40663   0.0180  26.1792 0000337 146.2748  59.0835  1.00267803 38729"}}, "geometry": {"type": "Point", "coordinates": [49.54362920636504, 0.017958267681447166]}}]}